STARLINK-34490          
1 64478U 25133G   25192.58335648 -.01641189  00000+0 -23408-1 0  9993
2 64478  53.1601 166.2851 0001262  69.2681 134.2847 15.58562476  4168
STARLINK-34528          
1 64479U 25133H   25192.58335648 -.01640915  00000+0 -23402-1 0  9994
2 64479  53.1598 166.2887 0001296  69.9479 131.6874 15.58564020  4148
STARLINK-34518          
1 64480U 25133J   25192.41857267 -.00281610  00000+0 -36083-2 0  9996
2 64480  53.1603 167.0783 0001142  99.4010 260.7132 15.59470317  3955
STARLINK-34526          
1 64481U 25133K   25192.58335648 -.01628331  00000+0 -23208-1 0  9999
2 64481  53.1601 166.2757 0001320  71.9616 135.4275 15.58558023  4060
STARLINK-34527          
1 64482U 25133L   25192.58335648 -.01642171  00000+0 -23424-1 0  9998
2 64482  53.1599 166.2722 0001192  74.5354 134.7694 15.58562579  4163
STARLINK-34420          
1 64483U 25133M   25192.58335648 -.01643725  00000+0 -23445-1 0  9998
2 64483  53.1600 166.2681 0001505  81.1289 130.0929 15.58563879  4164
STARLINK-34509          
1 64484U 25133N   25192.58335648 -.01642371  00000+0 -23426-1 0  9994
2 64484  53.1599 166.2638 0001429  71.5298 141.6119 15.58561800  4163
STARLINK-34409          
1 64485U 25133P   25192.58335648 -.01593582  00000+0 -23101-1 0  9994
2 64485  53.1601 166.2596 0001428  70.9468 144.1128 15.58554103  4168
STARLINK-34520          
1 64486U 25133Q   25192.58335648 -.01594193  00000+0 -23110-1 0  9994
2 64486  53.1601 166.2552 0001420  75.2990 141.6769 15.58555344  4162
STARLINK-34477          
1 64487U 25133R   25192.58335648 -.01571947  00000+0 -22754-1 0  9990
2 64487  53.1599 166.2514 0001412  71.7241 147.1688 15.58546362  4169
STARLINK-34217          
1 64488U 25133S   25192.58335648 -.01593157  00000+0 -23093-1 0  9995
2 64488  53.1600 166.2468 0001496  74.9782 145.8314 15.58554589  4068
STARLINK-34307          
1 64489U 25133T   25192.58335648 -.01585110  00000+0 -22965-1 0  9993
2 64489  53.1600 166.2426 0001511  77.1449 145.5839 15.58550152  4146
STARLINK-34505          
1 64490U 25133U   25192.58335648 -.01580638  00000+0 -22894-1 0  9996
2 64490  53.1597 166.2387 0001345  74.1736 150.4697 15.58549360  4146
STARLINK-34530          
1 64491U 25133V   25192.58335648 -.01597035  00000+0 -23156-1 0  9998
2 64491  53.1600 166.2349 0001256  69.8934 156.6626 15.58557663  4147
STARLINK-34522          
1 64492U 25133W   25192.58335648 -.01573713  00000+0 -22783-1 0  9991
2 64492  53.1593 166.2311 0001303  74.9134 153.5626 15.58547261  4161
STARLINK-34462          
1 64493U 25133X   25192.47823485 -.00252786  00000+0 -32446-2 0  9992
2 64493  53.1602 166.7369 0000461 152.7876 207.3162 15.59328666  4129
STARLINK-34226          
1 64494U 25133Y   25192.58335648 -.01589079  00000+0 -23028-1 0  9998
2 64494  53.1597 166.2229 0001313  74.9225 157.3851 15.58554388  4011
STARLINK-34364          
1 64495U 25133Z   25192.58335648 -.01588602  00000+0 -23020-1 0  9992
2 64495  53.1600 166.2146 0001347  73.1557 162.9852 15.58554273  4163
STARLINK-34268          
1 64496U 25133AA  25192.58335648 -.01586341  00000+0 -22985-1 0  9990
2 64496  53.1600 166.2188 0001248  78.6020 155.6239 15.58552973  4168
STARLINK-34363          
1 64497U 25133AB  25192.58335648 -.01575609  00000+0 -22813-1 0  9996
2 64497  53.1598 166.2109 0001279  79.0048 159.0558 15.58548629  4162
STARLINK-34427          
1 64498U 25133AC  25192.58335648 -.01573866  00000+0 -22785-1 0  9998
2 64498  53.1598 166.2071 0001268  76.6409 163.3354 15.58548188  4165
KUIPER-00039            
1 64500U 25134A   25192.55586028  .00008477  00000+0  25938-3 0  9993
2 64500  51.8671 243.7932 0007851 178.4832 181.6178 15.34649598  4021
KUIPER-00040            
1 64501U 25134B   25192.56640946  .00008044  00000+0  25346-3 0  9998
2 64501  51.8645 243.8583 0011127 190.6659 169.4092 15.33762521  4020
KUIPER-00041            
1 64502U 25134C   25192.62662781  .00011315  00000+0  34636-3 0  9994
2 64502  51.8673 243.5161 0009854 185.9010 174.1861 15.34262250  4036
KUIPER-00042            
1 64503U 25134D   25192.49441071  .00011203  00000+0  34187-3 0  9994
2 64503  51.8647 244.1277 0009013 179.3150 180.7849 15.34379855  4019
KUIPER-00043            
1 64504U 25134E   25192.55669330  .00008572  00000+0  26282-3 0  9994
2 64504  51.8683 243.7995 0008309 174.0613 186.0472 15.34564633  3947
KUIPER-00044            
1 64505U 25134F   25192.62937063  .00011955  00000+0  36828-3 0  9990
2 64505  51.8630 243.5286 0011138 182.8801 177.2121 15.33989301  4037
KUIPER-00046            
1 64506U 25134G   25192.56036383  .00007913  00000+0  24511-3 0  9994
2 64506  51.8657 243.8205 0009923 178.1673 181.9351 15.34346280  4025
KUIPER-00047            
1 64507U 25134H   25192.56388570  .00007694  00000+0  24113-3 0  9997
2 64507  51.8616 243.8385 0010505 189.2407 170.8386 15.34008405  3563
KUIPER-00048            
1 64508U 25134J   25192.60643827  .00012574  00000+0  36380-3 0  9994
2 64508  51.8765 243.3888 0003141 160.4772 199.6335 15.35969699  4034
KUIPER-00049            
1 64509U 25134K   25192.55215770  .00013936  00000+0  41374-3 0  9993
2 64509  51.8708 243.7724 0007135 172.7898 187.3192 15.35045660  4024
KUIPER-00050            
1 64510U 25134L   25192.55374616  .00008734  00000+0  26495-3 0  9997
2 64510  51.8717 243.7831 0007681 173.0191 187.0902 15.34883032  4029
KUIPER-00051            
1 64511U 25134M   25192.61315589  .00011920  00000+0  35225-3 0  9991
2 64511  51.8729 243.4331 0005392 166.2072 193.9062 15.35350658  4032
KUIPER-00052            
1 64512U 25134N   25192.58335648  .00085928  00000+0  22467-2 0  9998
2 64512  51.8755 243.5316 0004288 172.7404  45.9596 15.38008359  2116
KUIPER-00053            
1 64513U 25134P   25192.60279556  .00012085  00000+0  34818-3 0  9995
2 64513  51.8772 243.3632 0002302 151.1394 208.9719 15.36143976  4033
KUIPER-00054            
1 64514U 25134Q   25192.60550649  .00012610  00000+0  36450-3 0  9999
2 64514  51.8759 243.3835 0003080 150.5262 209.5898 15.35996053  4031
KUIPER-00055            
1 64515U 25134R   25192.53257662  .00008177  00000+0  23604-3 0  9991
2 64515  51.8772 243.6447 0000713  81.7034 278.4033 15.36560280  4026
KUIPER-00056            
1 64516U 25134S   25192.60792606  .00012802  00000+0  37166-3 0  9990
2 64516  51.8738 243.4000 0003628 163.1843 196.9264 15.35845209  4030
KUIPER-00057            
1 64517U 25134T   25192.55186316  .00008656  00000+0  26261-3 0  9996
2 64517  51.8694 243.7696 0006854 170.9861 189.1249 15.34895170  4023
KUIPER-00058            
1 64518U 25134U   25192.61208537  .00012847  00000+0  37765-3 0  9992
2 64518  51.8719 243.4260 0004883 171.8442 188.2624 15.35444634  4035
KUIPER-00059            
1 64519U 25134V   25192.53403888  .00008279  00000+0  23875-3 0  9991
2 64519  51.8774 243.6505 0001374 103.2904 256.8236 15.36573410  4021
KUIPER-00060            
1 64520U 25134W   25192.60161307  .00012323  00000+0  35299-3 0  9996
2 64520  51.8768 243.3569 0002311 120.3452 239.7763 15.36304788  4028
KUIPER-00061            
1 64521U 25134X   25192.61382672  .00012873  00000+0  37982-3 0  9999
2 64521  51.8737 243.4378 0005665 167.0478 193.0655 15.35321961  4028
KUIPER-00062            
1 64522U 25134Y   25192.60981870  .00012443  00000+0  36521-3 0  9995
2 64522  51.8747 243.4120 0004876 160.8127 199.3043 15.35525127  4031
KUIPER-00063            
1 64523U 25134Z   25192.60410700  .00012354  00000+0  35558-3 0  9995
2 64523  51.8753 243.3752 0002641 141.6142 218.5032 15.36152819  4038
KUIPER-00064            
1 64524U 25134AA  25192.59774185  .00012377  00000+0  35020-3 0  9993
2 64524  51.8773 243.3296 0001566  94.6221 265.4944 15.36688190  4033
KUIPER-00065            
1 64525U 25134AB  25192.62298003  .00011672  00000+0  35465-3 0  9998
2 64525  51.8696 243.4945 0008661 175.4854 184.6211 15.34475642  4025
KUIPER-00066            
1 64526U 25134AC  25192.60060620  .00012100  00000+0  34573-3 0  9995
2 64526  51.8764 243.3517 0001564 108.7463 251.3693 15.36404165  4037
2025-131D               
1 64527U 25131D   25192.64830260 -.00000287  00000+0  00000+0 0  9990
2 64527   1.0143 280.6578 3676621 174.1030 173.2012  1.00267403   210
AXIOM-4 (AX-4)          
1 64593U 25136A   25192.43608069  .00006811  00000+0  12510-3 0  9996
2 64593  51.6334 186.8773 0002661 359.1474   0.9510 15.50482195  2219
STARLINK-34280          
1 64594U 25137A   25192.59562390 -.00216872  00000+0 -12879-2 0  9990
2 64594  53.1553  29.9563 0006003 299.4832  60.5590 15.77830444  3610
STARLINK-34517          
1 64595U 25137B   25192.59527239 -.00270456  00000+0 -16169-2 0  9998
2 64595  53.1553  29.9535 0005630 312.6350  47.4196 15.77835452  3618
STARLINK-34510          
1 64596U 25137C   25192.59480687 -.00321143  00000+0 -19413-2 0  9999
2 64596  53.1552  29.9505 0000501  10.9192 349.1840 15.77764628  3613
STARLINK-34486          
1 64597U 25137D   25192.59436625 -.00225282  00000+0 -13491-2 0  9990
2 64597  53.1553  29.9476 0004015 326.0426  34.0338 15.77687149  3611
STARLINK-34463          
1 64598U 25137E   25192.59390270 -.00068152  00000+0 -39824-3 0  9996
2 64598  53.1551  29.9432 0001723 341.0337  19.0620 15.77689090  3617
STARLINK-34294          
1 64599U 25137F   25192.59348318 -.00247587  00000+0 -14975-2 0  9993
2 64599  53.1549  29.9416 0005958 305.8065  54.2402 15.77509114  3614
STARLINK-34504          
1 64600U 25137G   25192.59305514 -.00324704  00000+0 -19944-2 0  9995
2 64600  53.1553  29.9378 0001155 304.2357  55.8555 15.77415691  3613
STARLINK-34508          
1 64601U 25137H   25192.59263972  .00151227  00000+0  89269-3 0  9991
2 64601  53.1550  29.9362 0000162 352.3858   7.7161 15.77202626  3612
STARLINK-34435          
1 64602U 25137J   25192.59219566 -.00311467  00000+0 -19209-2 0  9994
2 64602  53.1551  29.9324 0006902 304.9905  55.0468 15.77237785  3616
